[{"OBJECT_NAME":"MONITOR-3 (RS58S)","OBJECT_ID":"2023-091Q","EPOCH":"2026-03-09T23:24:02.583360","MEAN_MOTION":15.25747617,"ECCENTRICITY":0.0013676,"INCLINATION":97.5199,"RA_OF_ASC_NODE":131.7909,"ARG_OF_PERICENTER":91.0881,"MEAN_ANOMALY":269.1924,"EPHEMERIS_TYPE":0,"CLASSIFICATION_TYPE":"U","NORAD_CAT_ID":57180,"ELEMENT_SET_NO":999,"REV_AT_EPOCH":14915,"BSTAR":0.00054974842,"MEAN_MOTION_DOT":0.00014004,"MEAN_MOTION_DDOT":0},{"OBJECT_NAME":"STARLINK-31776","OBJECT_ID":"2024-080C","EPOCH":"2026-03-08T23:55:14.934432","MEAN_MOTION":15.27580845,"ECCENTRICITY":6.336e-5,"INCLINATION":43.002,"RA_OF_ASC_NODE":45.5431,"ARG_OF_PERICENTER":250.5881,"MEAN_ANOMALY":109.4903,"EPHEMERIS_TYPE":0,"CLASSIFICATION_TYPE":"U","NORAD_CAT_ID":59603,"ELEMENT_SET_NO":999,"REV_AT_EPOCH":10438,"BSTAR":-7.1643837e-5,"MEAN_MOTION_DOT":-2.233e-5,"MEAN_MOTION_DDOT":0}]
